[
    {
        "Altitude(m)": 617710.705161837,
        "Argument of Periapsis(deg)": 0.0,
        "Eccentricity": 0.0,
        "Inclination(deg)": 60.0,
        "Latitude(deg)": -41.1028374658659,
        "Longitude(deg)": -85.03334213445903,
        "Mean Anomaly(deg)": 310.9091000000001,
        "RAAN(deg)": 45.0,
        "Satellite Name": "Test1 217",
        "Satellite Number": 217,
        "Semi-Major Axis(m)": 6980739.136638005,
        "Time(s)": 0
    },
    {
        "Altitude(m)": 617518.0033936106,
        "Argument of Periapsis(deg)": 0.00010418945913296404,
        "Eccentricity": 0.0,
        "Inclination(deg)": 60.0,
        "Latitude(deg)": -40.63704415242323,
        "Longitude(deg)": -84.53654767187157,
        "Mean Anomaly(deg)": 311.5292061454619,
        "RAAN(deg)": 44.99957995086026,
        "Satellite Name": "Test1 217",
        "Satellite Number": 217,
        "Semi-Major Axis(m)": 6980739.136638005,
        "Time(s)": 10
    }
]